IRIDIUM 36              
1 24967U 97056C   25030.52972123  .00000948  00000+0  31100-3 0  9994
2 24967  86.3941 230.7760 0002227  91.0200 269.1252 14.37382166432446
IRIDIUM 39              
1 25042U 97069D   25030.64232631  .00001284  00000+0  33358-3 0  9990
2 25042  86.3886 270.1122 0019678  50.0255 310.2673 14.48868877429308
IRIDIUM 38              
1 25043U 97069E   25030.46164582  .00000980  00000+0  31847-3 0  9993
2 25043  86.3955 291.1287 0002406 132.9420 227.1980 14.37891259426421
IRIDIUM 44              
1 25078U 97077B   25030.62551844  .00000926  00000+0  28783-3 0  9994
2 25078  86.3940 279.3393 0003761 101.6905 258.4716 14.40014320423909
IRIDIUM 45              
1 25104U 97082A   25030.65287171  .00022438  00000+0  93525-3 0  9990
2 25104  86.3616 114.3605 0133116 124.4461 236.9445 15.15736281431168
IRIDIUM 24              
1 25105U 97082B   25030.70540321  .00001190  00000+0  35761-3 0  9996
2 25105  86.3952 138.6064 0012033 162.9826 197.1780 14.41854508423405
IRIDIUM 51              
1 25262U 98018A   25030.52977347  .00034748  00000+0  10468-2 0  9993
2 25262  86.3908 123.3935 0108637  55.8636 305.2857 15.28443232426148
